{
  "type": "FeatureCollection",
  "features": [
    {
      "type": "Feature",
      "properties": {
        "norad_id": 58655,
        "name": "BEIDOU-3 M26 (C48)",
        "group": "beidou",
        "lat": 23.97775618866599,
        "lon": 85.84964097342704,
        "alt_km": 21532.455289277972,
        "timestamp": "2025-12-26T18:39:32.545919+00:00",
        "meta_object_name": "BEIDOU-3 M26 (C48)",
        "meta_object_id": "2023-207B",
        "meta_epoch": "2025-12-26T04:42:57.397824",
        "meta_mean_motion": 1.86231148,
        "meta_eccentricity": 0.00042709,
        "meta_inclination": 55.5979,
        "meta_ra_of_asc_node": 68.1319,
        "meta_arg_of_pericenter": 261.8376,
        "meta_mean_anomaly": 98.1658,
        "meta_ephemeris_type": 0,
        "meta_classification_type": "U",
        "meta_norad_cat_id": 58655,
        "meta_element_set_no": 999,
        "meta_rev_at_epoch": 1360,
        "meta_bstar": 0,
        "meta_mean_motion_dot": -3.2e-07,
        "meta_mean_motion_ddot": 0,
        "tle_line1": "1 58655U 23207B   25360.19649766 -.00000032  00000+0  00000+0 0  9991",
        "tle_line2": "2 58655  55.5979  68.1319 0004270 261.8376  98.1658  1.86231148 13606"
      },
      "geometry": {
        "type": "Point",
        "coordinates": [
          85.84964097342704,
          23.97775618866599
        ]
      }
    },
    {
      "type": "Feature",
      "properties": {
        "norad_id": 61186,
        "name": "BEIDOU-3 M25 (C47)",
        "group": "beidou",
        "lat": 26.84040652619019,
        "lon": 107.17412660834212,
        "alt_km": 21538.46061503129,
        "timestamp": "2025-12-26T18:39:32.545930+00:00",
        "meta_object_name": "BEIDOU-3 M25 (C47)",
        "meta_object_id": "2024-168B",
        "meta_epoch": "2025-12-26T03:07:34.767264",
        "meta_mean_motion": 1.86229952,
        "meta_eccentricity": 0.00054011,
        "meta_inclination": 54.6301,
        "meta_ra_of_asc_node": 308.2571,
        "meta_arg_of_pericenter": 300.3684,
        "meta_mean_anomaly": 132.0929,
        "meta_ephemeris_type": 0,
        "meta_classification_type": "U",
        "meta_norad_cat_id": 61186,
        "meta_element_set_no": 999,
        "meta_rev_at_epoch": 856,
        "meta_bstar": 0,
        "meta_mean_motion_dot": -5.6e-07,
        "meta_mean_motion_ddot": 0,
        "tle_line1": "1 61186U 24168B   25360.13026351 -.00000056  00000+0  00000+0 0  9990",
        "tle_line2": "2 61186  54.6301 308.2571 0005401 300.3684 132.0929  1.86229952  8562"
      },
      "geometry": {
        "type": "Point",
        "coordinates": [
          107.17412660834212,
          26.84040652619019
        ]
      }
    },
    {
      "type": "Feature",
      "properties": {
        "norad_id": 61187,
        "name": "BEIDOU-3 M27 (C49)",
        "group": "beidou",
        "lat": -53.096085690165204,
        "lon": -122.73594620120078,
        "alt_km": 21530.384563536158,
        "timestamp": "2025-12-26T18:39:32.545941+00:00",
        "meta_object_name": "BEIDOU-3 M27 (C49)",
        "meta_object_id": "2024-168C",
        "meta_epoch": "2025-12-26T02:09:38.712960",
        "meta_mean_motion": 1.86230112,
        "meta_eccentricity": 0.00025351,
        "meta_inclination": 54.6256,
        "meta_ra_of_asc_node": 308.2421,
        "meta_arg_of_pericenter": 341.7609,
        "meta_mean_anomaly": 198.677,
        "meta_ephemeris_type": 0,
        "meta_classification_type": "U",
        "meta_norad_cat_id": 61187,
        "meta_element_set_no": 999,
        "meta_rev_at_epoch": 603,
        "meta_bstar": 0,
        "meta_mean_motion_dot": -5.6e-07,
        "meta_mean_motion_ddot": 0,
        "tle_line1": "1 61187U 24168C   25360.09003140 -.00000056  00000+0  00000+0 0  9997",
        "tle_line2": "2 61187  54.6256 308.2421 0002535 341.7609 198.6770  1.86230112  6039"
      },
      "geometry": {
        "type": "Point",
        "coordinates": [
          -122.73594620120078,
          -53.096085690165204
        ]
      }
    }
  ]
}